{
  "norad_id": 48396,
  "name": "STARLINK-2575",
  "history": [
    {
      "epoch": "2026-03-28T16:57:17.559072Z",
      "apogee_km": 475.87482717391777,
      "perigee_km": 474.502791346903,
      "latitude_deg": -1.639066504210728e-05,
      "longitude_deg": 163.76587705954228,
      "height_km": 476.046697387081,
      "semi_major_axis_km": 6853.32580926041,
      "eccentricity": 0.0001001,
      "inclination_deg": 53.1587,
      "raan_deg": 244.2121,
      "arg_perigee_deg": 86.6222,
      "mean_anomaly_deg": 273.4893,
      "mean_motion_rev_day": 15.30208795
    }
  ]
}