{"fetched_at":"2026-03-29T16:36:15Z","count":15609,"tles":[{"name":"STARLINK-2575","line1":"1 48396U 21038AV  26087.70645323  .00004062  00000+0  14914-3 0  9990","line2":"2 48396  53.1587 244.2121 0001001  86.6222 273.4893 15.30208795271573","category":"Starlink"}]}